start=new Date('2021-10-04T00:00:00.000Z').valueOf();
sats=[{"FILE":"3143202","TLE_LINE1":"1 47574U 21009AC  21276.79184778 -.00000819  00000-0 -36084-4 0  9993","SEMIMAJOR_AXIS":"6925.369","MEAN_MOTION":"15.06393285","MEAN_ANOMALY":"270.4542","EPOCH":"2021-10-03T19:00:15.648192","OBJECT_ID":"2021-009AC","REF_FRAME":"TEME","ELEMENT_SET_NO":"999","EPHEMERIS_TYPE":"0","COUNTRY_CODE":"US","OBJECT_NAME":"STARLINK-1976","REV_AT_EPOCH":"3665","RCS_SIZE":"LARGE","PERIOD":"95.593","SITE":"AFETR","CENTER_NAME":"EARTH","NORAD_CAT_ID":"47574","OBJECT_TYPE":"PAYLOAD","ECCENTRICITY":"0.00017540","PERIAPSIS":"546.019","MEAN_ELEMENT_THEORY":"SGP4","LAUNCH_DATE":"2021-02-04","TLE_LINE2":"2 47574  53.0551 104.6306 0001754  89.6648 270.4542 15.06393285 36652","MEAN_MOTION_DOT":"-0.00000819","CLASSIFICATION_TYPE":"U","INCLINATION":"53.0551","TIME_SYSTEM":"UTC","BSTAR":"-0.00003608400000","MEAN_MOTION_DDOT":"0.0000000000000","APOAPSIS":"548.449","RA_OF_ASC_NODE":"104.6306","ARG_OF_PERICENTER":"89.6648","GP_ID":"186143147","DECAY_DATE":null},{"REF_FRAME":"TEME","ELEMENT_SET_NO":"999","OBJECT_ID":"2021-009AD","EPOCH":"2021-10-03T20:19:52.542624","MEAN_ANOMALY":"271.4864","TLE_LINE1":"1 47575U 21009AD  21276.84713591 -.00000444  00000-0 -10930-4 0  9997","FILE":"3143202","MEAN_MOTION":"15.06396943","SEMIMAJOR_AXIS":"6925.358","ECCENTRICITY":"0.00018860","CENTER_NAME":"EARTH","SITE":"AFETR","PERIOD":"95.592","OBJECT_TYPE":"PAYLOAD","NORAD_CAT_ID":"47575","REV_AT_EPOCH":"3666","RCS_SIZE":"LARGE","OBJECT_NAME":"STARLINK-1977","COUNTRY_CODE":"US","EPHEMERIS_TYPE":"0","TIME_SYSTEM":"UTC","INCLINATION":"53.0548","BSTAR":"-0.00001093000000","MEAN_MOTION_DDOT":"0.0000000000000","CLASSIFICATION_TYPE":"U","MEAN_MOTION_DOT":"-0.00000444","TLE_LINE2":"2 47575  53.0548 104.3881 0001886  88.6341 271.4864 15.06396943 36662","LAUNCH_DATE":"2021-02-04","PERIAPSIS":"545.917","MEAN_ELEMENT_THEORY":"SGP4","DECAY_DATE":null,"GP_ID":"186141895","RA_OF_ASC_NODE":"104.3881","APOAPSIS":"548.529","ARG_OF_PERICENTER":"88.6341"},{"ECCENTRICITY":"0.00017080","PERIOD":"95.592","CENTER_NAME":"EARTH","SITE":"AFETR","NORAD_CAT_ID":"47576","OBJECT_TYPE":"PAYLOAD","REV_AT_EPOCH":"3720","RCS_SIZE":"LARGE","EPHEMERIS_TYPE":"0","COUNTRY_CODE":"US","OBJECT_NAME":"STARLINK-1978","REF_FRAME":"TEME","ELEMENT_SET_NO":"999","EPOCH":"2021-10-03T16:21:00.960768","OBJECT_ID":"2021-009AE","MEAN_ANOMALY":"254.5223","TLE_LINE1":"1 47576U 21009AE  21276.68126112 -.00000010  00000-0  18242-4 0  9999","FILE":"3143202","SEMIMAJOR_AXIS":"6925.339","MEAN_MOTION":"15.06403035","DECAY_DATE":null,"GP_ID":"186142145","RA_OF_ASC_NODE":"65.1513","APOAPSIS":"548.387","ARG_OF_PERICENTER":"105.5955","INCLINATION":"53.0594","TIME_SYSTEM":"UTC","BSTAR":"0.00001824200000","MEAN_MOTION_DDOT":"0.0000000000000","CLASSIFICATION_TYPE":"U","TLE_LINE2":"2 47576  53.0594  65.1513 0001708 105.5955 254.5223 15.06403035 37206","LAUNCH_DATE":"2021-02-04","MEAN_MOTION_DOT":"-0.00000010","PERIAPSIS":"546.021","MEAN_ELEMENT_THEORY":"SGP4"},{"ECCENTRICITY":"0.00020020","OBJECT_TYPE":"PAYLOAD","NORAD_CAT_ID":"47577","CENTER_NAME":"EARTH","SITE":"AFETR","PERIOD":"95.593","RCS_SIZE":"LARGE","REV_AT_EPOCH":"3700","OBJECT_NAME":"STARLINK-1979","COUNTRY_CODE":"US","EPHEMERIS_TYPE":"0","ELEMENT_SET_NO":"999","REF_FRAME":"TEME","OBJECT_ID":"2021-009AF","EPOCH":"2021-10-03T17:20:05.062848","MEAN_ANOMALY":"268.6410","MEAN_MOTION":"15.06393893","SEMIMAJOR_AXIS":"6925.367","TLE_LINE1":"1 47577U 21009AF  21276.72228082  .00001104  00000-0  93034-4 0  9990","FILE":"3143202","DECAY_DATE":null,"GP_ID":"186142410","ARG_OF_PERICENTER":"91.4808","APOAPSIS":"548.619","RA_OF_ASC_NODE":"79.9571","MEAN_MOTION_DDOT":"0.0000000000000","BSTAR":"0.00009303400000","TIME_SYSTEM":"UTC","INCLINATION":"53.0579","CLASSIFICATION_TYPE":"U","MEAN_MOTION_DOT":"0.00001104","TLE_LINE2":"2 47577  53.0579  79.9571 0002002  91.4808 268.6410 15.06393893 37007","LAUNCH_DATE":"2021-02-04","MEAN_ELEMENT_THEORY":"SGP4","PERIAPSIS":"545.846"},{"EPOCH":"2021-10-03T17:11:26.697408","OBJECT_ID":"2021-009AG","ELEMENT_SET_NO":"999","REF_FRAME":"TEME","SEMIMAJOR_AXIS":"6925.365","MEAN_MOTION":"15.06394475","TLE_LINE1":"1 47578U 21009AG  21276.71628122 -.00000731  00000-0 -30166-4 0  9993","FILE":"3143202","MEAN_ANOMALY":"269.1749","NORAD_CAT_ID":"47578","OBJECT_TYPE":"PAYLOAD","PERIOD":"95.592","CENTER_NAME":"EARTH","SITE":"AFETR","ECCENTRICITY":"0.00020770","COUNTRY_CODE":"US","EPHEMERIS_TYPE":"0","OBJECT_NAME":"STARLINK-1980","RCS_SIZE":"LARGE","REV_AT_EPOCH":"3692","CLASSIFICATION_TYPE":"U","MEAN_MOTION_DDOT":"0.0000000000000","BSTAR":"-0.00003016600000","INCLINATION":"53.0557","TIME_SYSTEM":"UTC","MEAN_ELEMENT_THEORY":"SGP4","PERIAPSIS":"545.792","LAUNCH_DATE":"2021-02-04","TLE_LINE2":"2 47578  53.0557  84.9736 0002077  90.9478 269.1749 15.06394475 36920","MEAN_MOTION_DOT":"-0.00000731","DECAY_DATE":null,"ARG_OF_PERICENTER":"90.9478","RA_OF_ASC_NODE":"84.9736","APOAPSIS":"548.669","GP_ID":"186142661"},{"ARG_OF_PERICENTER":"96.5837","APOAPSIS":"548.477","RA_OF_ASC_NODE":"74.7558","GP_ID":"186141409","DECAY_DATE":null,"MEAN_ELEMENT_THEORY":"SGP4","PERIAPSIS":"545.898","MEAN_MOTION_DOT":"-0.00000016","TLE_LINE2":"2 47579  53.0555  74.7558 0001862  96.5837 263.5364 15.06408488 37078","LAUNCH_DATE":"2021-02-04","CLASSIFICATION_TYPE":"U","BSTAR":"0.00001780700000","MEAN_MOTION_DDOT":"0.0000000000000","TIME_SYSTEM":"UTC","INCLINATION":"53.0555","OBJECT_NAME":"STARLINK-1981","EPHEMERIS_TYPE":"0","COUNTRY_CODE":"US","RCS_SIZE":"LARGE","REV_AT_EPOCH":"3707","OBJECT_TYPE":"PAYLOAD","NORAD_CAT_ID":"47579","SITE":"AFETR","CENTER_NAME":"EARTH","PERIOD":"95.592","ECCENTRICITY":"0.00018620","MEAN_MOTION":"15.06408488","SEMIMAJOR_AXIS":"6925.323","TLE_LINE1":"1 47579U 21009AH  21276.76511323 -.00000016  00000-0  17807-4 0  9995","FILE":"3143202","MEAN_ANOMALY":"263.5364","OBJECT_ID":"2021-009AH","EPOCH":"2021-10-03T18:21:45.783072","ELEMENT_SET_NO":"999","REF_FRAME":"TEME"},{"ARG_OF_PERICENTER":"89.6699","RA_OF_ASC_NODE":"84.9556","APOAPSIS":"548.735","GP_ID":"186141659","DECAY_DATE":null,"MEAN_ELEMENT_THEORY":"SGP4","PERIAPSIS":"545.832","MEAN_MOTION_DOT":"-0.00001024","TLE_LINE2":"2 47580  53.0533  84.9556 0002096  89.6699 270.4530 15.06377157 36929","LAUNCH_DATE":"2021-02-04","CLASSIFICATION_TYPE":"U","MEAN_MOTION_DDOT":"0.0000000000000","BSTAR":"-0.00004984300000","TIME_SYSTEM":"UTC","INCLINATION":"53.0533","OBJECT_NAME":"STARLINK-1982","COUNTRY_CODE":"US","EPHEMERIS_TYPE":"0","RCS_SIZE":"LARGE","REV_AT_EPOCH":"3692","OBJECT_TYPE":"PAYLOAD","NORAD_CAT_ID":"47580","CENTER_NAME":"EARTH","SITE":"AFETR","PERIOD":"95.594","ECCENTRICITY":"0.00020960","MEAN_MOTION":"15.06377157","SEMIMAJOR_AXIS":"6925.419","FILE":"3143202","TLE_LINE1":"1 47580U 21009AJ  21276.71999412 -.00001024  00000-0 -49843-4 0  9997","MEAN_ANOMALY":"270.4530","OBJECT_ID":"2021-009AJ","EPOCH":"2021-10-03T17:16:47.491968","ELEMENT_SET_NO":"999","REF_FRAME":"TEME"},{"ELEMENT_SET_NO":"999","REF_FRAME":"TEME","OBJECT_ID":"2021-009AK","EPOCH":"2021-10-03T16:47:33.209088","MEAN_ANOMALY":"259.7714","MEAN_MOTION":"15.06398751","SEMIMAJOR_AXIS":"6925.352","TLE_LINE1":"1 47581U 21009AK  21276.69968992 -.00000335  00000-0 -35549-5 0  9997","FILE":"3143202","ECCENTRICITY":"0.00016870","OBJECT_TYPE":"PAYLOAD","NORAD_CAT_ID":"47581","CENTER_NAME":"EARTH","SITE":"AFETR","PERIOD":"95.592","RCS_SIZE":"LARGE","REV_AT_EPOCH":"3720","OBJECT_NAME":"STARLINK-1984","COUNTRY_CODE":"US","EPHEMERIS_TYPE":"0","BSTAR":"-0.00000355490000","MEAN_MOTION_DDOT":"0.0000000000000","TIME_SYSTEM":"UTC","INCLINATION":"53.0564","CLASSIFICATION_TYPE":"U","MEAN_MOTION_DOT":"-0.00000335","TLE_LINE2":"2 47581  53.0564  65.0450 0001687 100.3465 259.7714 15.06398751 37203","LAUNCH_DATE":"2021-02-04","MEAN_ELEMENT_THEORY":"SGP4","PERIAPSIS":"546.049","DECAY_DATE":null,"GP_ID":"186142897","ARG_OF_PERICENTER":"100.3465","APOAPSIS":"548.386","RA_OF_ASC_NODE":"65.0450"},{"OBJECT_NAME":"STARLINK-1986","EPHEMERIS_TYPE":"0","COUNTRY_CODE":"US","RCS_SIZE":"LARGE","REV_AT_EPOCH":"3693","OBJECT_TYPE":"PAYLOAD","NORAD_CAT_ID":"47582","SITE":"AFETR","CENTER_NAME":"EARTH","PERIOD":"95.592","ECCENTRICITY":"0.00019800","MEAN_MOTION":"15.06396725","SEMIMAJOR_AXIS":"6925.359","FILE":"3143202","TLE_LINE1":"1 47582U 21009AL  21276.75314176  .00001254  00000-0  10310-3 0  9990","MEAN_ANOMALY":"269.4483","OBJECT_ID":"2021-009AL","EPOCH":"2021-10-03T18:04:31.448064","ELEMENT_SET_NO":"999","REF_FRAME":"TEME","ARG_OF_PERICENTER":"90.6733","RA_OF_ASC_NODE":"84.8157","APOAPSIS":"548.595","GP_ID":"186143148","DECAY_DATE":null,"MEAN_ELEMENT_THEORY":"SGP4","PERIAPSIS":"545.852","MEAN_MOTION_DOT":"0.00001254","TLE_LINE2":"2 47582  53.0566  84.8157 0001980  90.6733 269.4483 15.06396725 36933","LAUNCH_DATE":"2021-02-04","CLASSIFICATION_TYPE":"U","MEAN_MOTION_DDOT":"0.0000000000000","BSTAR":"0.00010310000000","TIME_SYSTEM":"UTC","INCLINATION":"53.0566"},{"INCLINATION":"53.0561","TIME_SYSTEM":"UTC","MEAN_MOTION_DDOT":"0.0000000000000","BSTAR":"0.00012067000000","CLASSIFICATION_TYPE":"U","LAUNCH_DATE":"2021-02-04","TLE_LINE2":"2 47583  53.0561  84.9201 0001981  88.7355 271.3861 15.06402544 36938","MEAN_MOTION_DOT":"0.00001516","PERIAPSIS":"545.834","MEAN_ELEMENT_THEORY":"SGP4","DECAY_DATE":null,"GP_ID":"186141896","APOAPSIS":"548.578","RA_OF_ASC_NODE":"84.9201","ARG_OF_PERICENTER":"88.7355","REF_FRAME":"TEME","ELEMENT_SET_NO":"999","EPOCH":"2021-10-03T17:32:40.418304","OBJECT_ID":"2021-009AM","MEAN_ANOMALY":"271.3861","TLE_LINE1":"1 47583U 21009AM  21276.73102336  .00001516  00000-0  12067-3 0  9994","FILE":"3143202","SEMIMAJOR_AXIS":"6925.341","MEAN_MOTION":"15.06402544","ECCENTRICITY":"0.00019810","PERIOD":"95.592","CENTER_NAME":"EARTH","SITE":"AFETR","NORAD_CAT_ID":"47583","OBJECT_TYPE":"PAYLOAD","REV_AT_EPOCH":"3693","RCS_SIZE":"LARGE","EPHEMERIS_TYPE":"0","COUNTRY_CODE":"US","OBJECT_NAME":"STARLINK-1987"}];
